STARLINK-2236
1 48582U 21041AF  26090.04504495  .00019528  00000+0  12661-2 0  9995
2 48582  53.0569   0.8145 0001536 119.7842 240.3301 15.08119955268915
